{
  "type": "FeatureCollection",
  "features": [
    {
      "type": "Feature",
      "properties": {
        "name": "オオムラサキ",
        "prefecture": "山梨県"
      },
      "geometry": {
        "type": "Point",
        "coordinates": [138.573, 35.664]
      }
    },
    {
      "type": "Feature",
      "properties": {
        "name": "カブトムシ",
        "prefecture": "鹿児島県"
      },
      "geometry": {
        "type": "Point",
        "coordinates": [130.558, 31.560]
      }
    },
    {
      "type": "Feature",
      "properties": {
        "name": "ミヤマクワガタ",
        "prefecture": "北海道"
      },
      "geometry": {
        "type": "Point",
        "coordinates": [141.3468, 43.0642]
      }
    },
    {
      "type": "Feature",
      "properties": {
        "name": "アゲハチョウ",
        "prefecture": "東京都"
      },
      "geometry": {
        "type": "Point",
        "coordinates": [139.6917, 35.6895]
      }
    },
    {
      "type": "Feature",
      "properties": {
        "name": "カブトムシ",
        "prefecture": "北海道"
      },
      "geometry": {
        "type": "Point",
        "coordinates": [141.3468, 43.0642]
      }
    },
    {
      "type": "Feature",
      "properties": {
        "name": "ミツバチ",
        "prefecture": "群馬県"
      },
      "geometry": {
        "type": "Point",
        "coordinates": [139.0605, 36.3913]
      }
    }
  ]
}
